{
"type": "FeatureCollection",
"name": "stations",
"crs": { "type": "name", "properties": { "name": "urn:ogc:def:crs:OGC:1.3:CRS84" } },
"features": [
{ "type": "Feature", "properties": { "osm_id": 5679091610, "operator": "Central Ohio Transit Authority", "covered": "yes", "ref": "2846", "highway": "bus_stop", "name": "COTA Transit Terminal Bay 8", "public_transport": "platform", "bus": "yes", "network": "COTA", "bench": "yes", "shelter": null }, "geometry": { "type": "Point", "coordinates": [ -82.9989851, 39.9566783 ] } },
{ "type": "Feature", "properties": { "osm_id": 5679091611, "operator": "Central Ohio Transit Authority", "covered": "yes", "ref": "2776", "highway": "bus_stop", "name": "COTA Transit Terminal Bay 6", "public_transport": "platform", "bus": "yes", "network": "COTA", "bench": "yes", "shelter": null }, "geometry": { "type": "Point", "coordinates": [ -82.9990374, 39.956922 ] } },
{ "type": "Feature", "properties": { "osm_id": 5653382429, "operator": "Central Ohio Transit Authority", "covered": null, "ref": "4085", "highway": "bus_stop", "name": "S High St & E Rich St", "public_transport": "platform", "bus": "yes", "network": "COTA", "bench": "yes", "shelter": "yes" }, "geometry": { "type": "Point", "coordinates": [ -82.9995598, 39.9572191 ] } },
{ "type": "Feature", "properties": { "osm_id": 5679091612, "operator": "Central Ohio Transit Authority", "covered": "yes", "ref": "2746", "highway": "bus_stop", "name": "COTA Transit Terminal Bay 4", "public_transport": "platform", "bus": "yes", "network": "COTA", "bench": "yes", "shelter": null }, "geometry": { "type": "Point", "coordinates": [ -82.9990857, 39.9571502 ] } },
{ "type": "Feature", "properties": { "osm_id": 5679091614, "operator": "Central Ohio Transit Authority", "covered": "yes", "ref": "1942", "highway": "bus_stop", "name": "COTA Transit Terminal Bay 3", "public_transport": "platform", "bus": "yes", "network": "COTA", "bench": "yes", "shelter": null }, "geometry": { "type": "Point", "coordinates": [ -82.9989771, 39.9571409 ] } },
{ "type": "Feature", "properties": { "osm_id": 5679091615, "operator": "Central Ohio Transit Authority", "covered": "yes", "ref": "2871", "highway": "bus_stop", "name": "COTA Transit Terminal Bay 7", "public_transport": "platform", "bus": "yes", "network": "COTA", "bench": "yes", "shelter": null }, "geometry": { "type": "Point", "coordinates": [ -82.9988711, 39.956664 ] } },
{ "type": "Feature", "properties": { "osm_id": 5679091616, "operator": "Central Ohio Transit Authority", "covered": "yes", "ref": "2851", "highway": "bus_stop", "name": "COTA Transit Terminal Bay 5", "public_transport": "platform", "bus": "yes", "network": "COTA", "bench": "yes", "shelter": null }, "geometry": { "type": "Point", "coordinates": [ -82.9989301, 39.9569025 ] } },
{ "type": "Feature", "properties": { "osm_id": 5660412222, "operator": "Central Ohio Transit Authority", "covered": null, "ref": "1645", "highway": "bus_stop", "name": "E Main St & S 4th St", "public_transport": "platform", "bus": "yes", "network": "COTA", "bench": "no", "shelter": "no" }, "geometry": { "type": "Point", "coordinates": [ -82.9945293, 39.956628 ] } },
{ "type": "Feature", "properties": { "osm_id": 5660412221, "operator": "Central Ohio Transit Authority", "covered": null, "ref": "1347", "highway": "bus_stop", "name": "E Main St & S 5th St", "public_transport": "platform", "bus": "yes", "network": "COTA", "bench": "yes", "shelter": "yes" }, "geometry": { "type": "Point", "coordinates": [ -82.9922031, 39.9568829 ] } },
{ "type": "Feature", "properties": { "osm_id": 5694539755, "operator": "Central Ohio Transit Authority", "covered": null, "ref": "7466", "highway": "bus_stop", "name": "S Front St & W Town St", "public_transport": "platform", "bus": "yes", "network": "COTA", "bench": "yes", "shelter": "yes" }, "geometry": { "type": "Point", "coordinates": [ -83.001916, 39.9588505 ] } },
{ "type": "Feature", "properties": { "osm_id": 5694539760, "operator": "Central Ohio Transit Authority", "covered": null, "ref": "4150", "highway": "bus_stop", "name": "W Broad St & Marconi Blvd", "public_transport": "platform", "bus": "yes", "network": "COTA", "bench": "yes", "shelter": "yes" }, "geometry": { "type": "Point", "coordinates": [ -83.0036213, 39.9620376 ] } },
{ "type": "Feature", "properties": { "osm_id": 5694539757, "operator": "Central Ohio Transit Authority", "covered": null, "ref": "7456", "highway": "bus_stop", "name": "S Front St & W Broad St", "public_transport": "platform", "bus": "yes", "network": "COTA", "bench": "yes", "shelter": "yes" }, "geometry": { "type": "Point", "coordinates": [ -83.0024411, 39.9615067 ] } },
{ "type": "Feature", "properties": { "osm_id": 5694539759, "operator": "Central Ohio Transit Authority", "covered": null, "ref": "2681", "highway": "bus_stop", "name": "W Broad St & S Front St", "public_transport": "platform", "bus": "yes", "network": "COTA", "bench": "yes", "shelter": "yes" }, "geometry": { "type": "Point", "coordinates": [ -83.0026986, 39.9618634 ] } },
{ "type": "Feature", "properties": { "osm_id": 5681243813, "operator": "Central Ohio Transit Authority", "covered": null, "ref": "7534", "highway": "bus_stop", "name": "Marconi Blvd & Long St", "public_transport": "platform", "bus": "yes", "network": "COTA", "bench": "no", "shelter": "no" }, "geometry": { "type": "Point", "coordinates": [ -83.0048135, 39.9647384 ] } },
{ "type": "Feature", "properties": { "osm_id": 5694539758, "operator": "Central Ohio Transit Authority", "covered": null, "ref": "4122", "highway": "bus_stop", "name": "N Front St & W Gay St", "public_transport": "platform", "bus": "yes", "network": "COTA", "bench": "no", "shelter": "no" }, "geometry": { "type": "Point", "coordinates": [ -83.0026336, 39.9637254 ] } },
{ "type": "Feature", "properties": { "osm_id": 5679091613, "operator": "Central Ohio Transit Authority", "covered": "yes", "ref": "8033", "highway": "bus_stop", "name": "COTA Transit Terminal Bay 2", "public_transport": "platform", "bus": "yes", "network": "COTA", "bench": "yes", "shelter": null }, "geometry": { "type": "Point", "coordinates": [ -82.9991393, 39.9573979 ] } },
{ "type": "Feature", "properties": { "osm_id": 5679091617, "operator": "Central Ohio Transit Authority", "covered": "yes", "ref": null, "highway": "bus_stop", "name": "COTA Transit Terminal Bay 1", "public_transport": "platform", "bus": "yes", "network": "COTA", "bench": "yes", "shelter": null }, "geometry": { "type": "Point", "coordinates": [ -82.9990294, 39.9573794 ] } },
{ "type": "Feature", "properties": { "osm_id": 5653382427, "operator": "Central Ohio Transit Authority", "covered": null, "ref": "4106", "highway": "bus_stop", "name": "S High St & W Town St", "public_transport": "platform", "bus": "yes", "network": "COTA", "bench": "yes", "shelter": "yes" }, "geometry": { "type": "Point", "coordinates": [ -82.999999, 39.9581802 ] } },
{ "type": "Feature", "properties": { "osm_id": 5694539756, "operator": "Central Ohio Transit Authority", "covered": null, "ref": "6398", "highway": "bus_stop", "name": "S Front St & W Town St", "public_transport": "platform", "bus": "yes", "network": "COTA", "bench": "yes", "shelter": "yes" }, "geometry": { "type": "Point", "coordinates": [ -83.0016948, 39.9588803 ] } },
{ "type": "Feature", "properties": { "osm_id": 5653382426, "operator": "Central Ohio Transit Authority", "covered": null, "ref": "4087", "highway": "bus_stop", "name": "S High St & E State St", "public_transport": "platform", "bus": "yes", "network": "COTA", "bench": "no", "shelter": "no" }, "geometry": { "type": "Point", "coordinates": [ -83.0000922, 39.959955 ] } },
{ "type": "Feature", "properties": { "osm_id": 5681243809, "operator": "Central Ohio Transit Authority", "covered": null, "ref": "4116", "highway": "bus_stop", "name": "S 3rd St & E Town St", "public_transport": "platform", "bus": "yes", "network": "COTA", "bench": "yes", "shelter": "yes" }, "geometry": { "type": "Point", "coordinates": [ -82.9973456, 39.9586002 ] } },
{ "type": "Feature", "properties": { "osm_id": 5653382425, "operator": "Central Ohio Transit Authority", "covered": null, "ref": "1251", "highway": "bus_stop", "name": "S High St & W State St", "public_transport": "platform", "bus": "yes", "network": "COTA", "bench": "no", "shelter": "no" }, "geometry": { "type": "Point", "coordinates": [ -83.0004134, 39.960489 ] } },
{ "type": "Feature", "properties": { "osm_id": 5653382424, "operator": "Central Ohio Transit Authority", "covered": null, "ref": "6464", "highway": "bus_stop", "name": "S High St & E Broad St", "public_transport": "platform", "bus": "yes", "network": "COTA", "bench": "yes", "shelter": "yes" }, "geometry": { "type": "Point", "coordinates": [ -83.0004214, 39.9616259 ] } },
{ "type": "Feature", "properties": { "osm_id": 5681243810, "operator": "Central Ohio Transit Authority", "covered": null, "ref": "4114", "highway": "bus_stop", "name": "S 3rd St & E Broad St", "public_transport": "platform", "bus": "yes", "network": "COTA", "bench": "no", "shelter": "no" }, "geometry": { "type": "Point", "coordinates": [ -82.9980007, 39.9620309 ] } },
{ "type": "Feature", "properties": { "osm_id": 5681243814, "operator": "Central Ohio Transit Authority", "covered": null, "ref": "1586", "highway": "bus_stop", "name": "S 4th St & E Town St", "public_transport": "platform", "bus": "yes", "network": "COTA", "bench": "yes", "shelter": "yes" }, "geometry": { "type": "Point", "coordinates": [ -82.9954479, 39.95909 ] } },
{ "type": "Feature", "properties": { "osm_id": 5681243815, "operator": "Central Ohio Transit Authority", "covered": null, "ref": "7434", "highway": "bus_stop", "name": "S 4th St & E Capital St", "public_transport": "platform", "bus": "yes", "network": "COTA", "bench": "yes", "shelter": "yes" }, "geometry": { "type": "Point", "coordinates": [ -82.9959904, 39.9619035 ] } },
{ "type": "Feature", "properties": { "osm_id": 5653382422, "operator": "Central Ohio Transit Authority", "covered": null, "ref": "2900", "highway": "bus_stop", "name": "N High St & W Broad St", "public_transport": "platform", "bus": "yes", "network": "COTA", "bench": "yes", "shelter": "yes" }, "geometry": { "type": "Point", "coordinates": [ -83.0009042, 39.9628615 ] } },
{ "type": "Feature", "properties": { "osm_id": 5653382421, "operator": "Central Ohio Transit Authority", "covered": null, "ref": "5910", "highway": "bus_stop", "name": "N High St & E Long St", "public_transport": "platform", "bus": "yes", "network": "COTA", "bench": "yes", "shelter": "yes" }, "geometry": { "type": "Point", "coordinates": [ -83.0009364, 39.9643858 ] } },
{ "type": "Feature", "properties": { "osm_id": 5653381820, "operator": "Central Ohio Transit Authority", "covered": null, "ref": "4101", "highway": "bus_stop", "name": "N High St & W Long St", "public_transport": "platform", "bus": "yes", "network": "COTA", "bench": "yes", "shelter": "yes" }, "geometry": { "type": "Point", "coordinates": [ -83.0013441, 39.9651763 ] } },
{ "type": "Feature", "properties": { "osm_id": 5681243812, "operator": "Central Ohio Transit Authority", "covered": null, "ref": "4157", "highway": "bus_stop", "name": "E Long St & N High St", "public_transport": "platform", "bus": "yes", "network": "COTA", "bench": "yes", "shelter": "yes" }, "geometry": { "type": "Point", "coordinates": [ -83.0003919, 39.9649419 ] } },
{ "type": "Feature", "properties": { "osm_id": 5681243816, "operator": "Central Ohio Transit Authority", "covered": null, "ref": "6041", "highway": "bus_stop", "name": "N 4th St & E Gay St", "public_transport": "platform", "bus": "yes", "network": "COTA", "bench": "no", "shelter": "no" }, "geometry": { "type": "Point", "coordinates": [ -82.9963592, 39.9638297 ] } },
{ "type": "Feature", "properties": { "osm_id": 5681243811, "operator": "Central Ohio Transit Authority", "covered": null, "ref": "4113", "highway": "bus_stop", "name": "N 3rd St & E Gay St", "public_transport": "platform", "bus": "yes", "network": "COTA", "bench": "yes", "shelter": "yes" }, "geometry": { "type": "Point", "coordinates": [ -82.9984567, 39.9642944 ] } }
]
}
